SENTINEL-6              
1 46984U 20086A   23254.87595482 -.00000035  00000+0  11294-3 0  9999
2 46984  66.0407  71.4010 0007852 268.2728  91.7388 12.80929757131186
